NORAD_CAT_ID,OBJECT_NAME,OBJECT_TYPE,EPOCH,MEAN_MOTION,ECCENTRICITY,INCLINATION,RA_OF_ASC_NODE,ARG_OF_PERICENTER,MEAN_ANOMALY,BSTAR,MEAN_MOTION_DOT,MEAN_MOTION_DDOT,TLE_LINE0,TLE_LINE1,TLE_LINE2,SEMIMAJOR_AXIS,PERIOD,APOGEE,PERIGEE,DECAYED
53841.0,STARLINK-4750,PAYLOAD,2023-01-07 05:40:01,15.08840472,0.0002336,53.2162,90.2521,40.2015,319.915,-0.00015922,-2.822e-05,0.0,0 STARLINK-4750,1 53841U 22114Z   23007.23613266 -.00002822  00000-0 -15922-3 0  9990,2 53841  53.2162  90.2521 0002336  40.2015 319.9150 15.08840472 17697,6917.879,95.438,541.36,538.128,0.0
53841.0,STARLINK-4750,PAYLOAD,2023-01-08 05:30:50,15.08810983,0.0002172,53.2189,85.7926,30.7971,329.3148,2.4055e-05,9.4e-07,0.0,0 STARLINK-4750,1 53841U 22114Z   23008.22975119  .00000094  00000-0  24055-4 0  9993,2 53841  53.2189  85.7926 0002172  30.7971 329.3148 15.08810983 17840,6917.969,95.439,541.337,538.332,0.0
53841.0,STARLINK-4750,PAYLOAD,2023-01-08 13:27:46,15.0880664,0.0002494,53.2193,84.3086,28.5935,331.5193,0.00020155,2.918e-05,0.0,0 STARLINK-4750,1 53841U 22114Z   23008.56095379  .00002918  00000-0  20155-3 0  9994,2 53841  53.2193  84.3086 0002494  28.5935 331.5193 15.08806640 18435,6917.982,95.44,541.573,538.122,0.0
53841.0,STARLINK-4750,PAYLOAD,2023-01-08 21:24:41,15.08820872,0.0002519,53.2178,82.8211,37.0107,323.1058,0.00020587,2.988e-05,0.0,0 STARLINK-4750,1 53841U 22114Z   23008.89215035  .00002988  00000-0  20587-3 0  9999,2 53841  53.2178  82.8211 0002519  37.0107 323.1058 15.08820872 18480,6917.939,95.439,541.5459999999998,538.061,0.0
53841.0,STARLINK-4750,PAYLOAD,2023-01-09 05:21:36,15.08839864,0.0002387,53.2178,81.3323,23.7861,336.3241,7.2219e-05,8.61e-06,0.0,0 STARLINK-4750,1 53841U 22114Z   23009.22334047  .00000861  00000-0  72219-4 0  9990,2 53841  53.2178  81.3323 0002387  23.7861 336.3241 15.08839864 17996,6917.880999999999,95.438,541.3969999999998,538.095,0.0
53841.0,STARLINK-4750,PAYLOAD,2023-01-09 11:43:08,15.08862894,0.0002263,53.2185,80.1428,29.7745,330.3375,-0.00013736,-2.475e-05,0.0,0 STARLINK-4750,1 53841U 22114Z   23009.48829516 -.00002475  00000-0 -13736-3 0  9991,2 53841  53.2185  80.1428 0002263  29.7745 330.3375 15.08862894 18573,6917.81,95.436,541.241,538.11,0.0
53841.0,STARLINK-4750,PAYLOAD,2023-01-09 21:15:28,15.08838973,0.0002437,53.2175,78.3592,25.0691,335.0419,7.9235e-05,9.73e-06,0.0,0 STARLINK-4750,1 53841U 22114Z   23009.88574092  .00000973  00000-0  79235-4 0  9997,2 53841  53.2175  78.3592 0002437  25.0691 335.0419 15.08838973 18634,6917.884,95.438,541.434,538.063,0.0
53841.0,STARLINK-4750,PAYLOAD,2023-01-10 08:23:10,15.08865654,0.0002441,53.2177,76.2778,14.8643,345.242,-0.0003732,-6.227e-05,0.0,0 STARLINK-4750,1 53841U 22114Z   23010.34942582 -.00006227  00000-0 -37320-3 0  9991,2 53841  53.2177  76.2778 0002441  14.8643 345.2420 15.08865654 18166,6917.802,95.436,541.356,537.9780000000002,0.0
53841.0,STARLINK-4750,PAYLOAD,2023-01-10 11:33:57,15.08821716,0.0002526,53.2177,75.6831,24.1619,335.9491,0.00012312,1.671e-05,0.0,0 STARLINK-4750,1 53841U 22114Z   23010.48191437  .00001671  00000-0  12312-3 0  9991,2 53841  53.2177  75.6831 0002526  24.1619 335.9491 15.08821716 18187,6917.936,95.439,541.549,538.054,0.0
53841.0,STARLINK-4750,PAYLOAD,2023-01-11 13:00:06,15.08848801,0.0002603,53.2178,70.92399999999998,23.1537,336.9572,-9.4072e-06,-4.38e-06,0.0,0 STARLINK-4750,1 53841U 22114Z   23011.54173842 -.00000438  00000-0 -94072-5 0  9996,2 53841  53.2178  70.9240 0002603  23.1537 336.9572 15.08848801 18347,6917.853,95.437,541.519,537.918,0.0
53841.0,STARLINK-4750,PAYLOAD,2023-01-12 20:47:48,15.08841962,0.000247,53.2165,64.9764,27.8969,332.2155,-4.4242e-06,-3.59e-06,0.0,0 STARLINK-4750,1 53841U 22114Z   23012.86653584 -.00000359  00000-0 -44242-5 0  9994,2 53841  53.2165  64.9764 0002470  27.8969 332.2155 15.08841962 19088,6917.874,95.437,541.448,538.031,0.0
53841.0,STARLINK-4750,PAYLOAD,2023-01-12 23:58:37,15.08813364,0.0002363,53.2179,64.3831,28.7694,331.3428,-0.00031352,-5.271e-05,0.0,0 STARLINK-4750,1 53841U 22114Z   23012.99904430 -.00005271  00000-0 -31352-3 0  9991,2 53841  53.2179  64.3831 0002363  28.7694 331.3428 15.08813364 18568,6917.962,95.439,541.462,538.192,0.0
53841.0,STARLINK-4750,PAYLOAD,2023-01-13 12:41:41,15.08825386,0.0002318,53.215,61.9992,32.9408,327.1728,-0.00019944,-3.46e-05,0.0,0 STARLINK-4750,1 53841U 22114Z   23013.52895757 -.00003460  00000-0 -19944-3 0  9993,2 53841  53.2150  61.9992 0002318  32.9408 327.1728 15.08825386 18640,6917.925,95.438,541.394,538.186,0.0
53841.0,STARLINK-4750,PAYLOAD,2023-01-13 20:38:37,15.08827935,0.0002262,53.2164,60.5148,37.437,322.6779,-7.102100000000001e-05,-1.418e-05,0.0,0 STARLINK-4750,1 53841U 22114Z   23013.86015402 -.00001418  00000-0 -71021-4 0  9997,2 53841  53.2164  60.5148 0002262  37.4370 322.6779 15.08827935 19233,6917.917,95.438,541.347,538.217,0.0
53841.0,STARLINK-4750,PAYLOAD,2023-01-14 06:10:55,15.08864843,0.0002541,53.2163,58.7341,32.8792,327.2358,-0.0004923999999999,-8.122e-05,0.0,0 STARLINK-4750,1 53841U 22114Z   23014.25759082 -.00008122  00000-0 -49240-3 0  9996,2 53841  53.2163  58.7341 0002541  32.8792 327.2358 15.08864843 18752,6917.804,95.436,541.427,537.9119999999999,0.0
53841.0,STARLINK-4750,PAYLOAD,2023-01-15 02:50:57,15.08812255,0.0001939,53.2163,54.864,40.0117,320.1017,8.7602e-05,1.105e-05,0.0,0 STARLINK-4750,1 53841U 22114Z   23015.11872467  .00001105  00000-0  87602-4 0  9992,2 53841  53.2163  54.8640 0001939  40.0117 320.1017 15.08812255 18881,6917.965,95.439,541.172,538.489,0.0
53841.0,STARLINK-4750,PAYLOAD,2023-01-15 12:23:16,15.08826695,0.0002372,53.218,53.0812,51.4783,308.6422,6.138899999999999e-05,6.88e-06,0.0,0 STARLINK-4750,1 53841U 22114Z   23015.51616102  .00000688  00000-0  61389-4 0  9997,2 53841  53.2180  53.0812 0002372  51.4783 308.6422 15.08826695 18940,6917.920999999999,95.438,541.427,538.145,0.0
53841.0,STARLINK-4750,PAYLOAD,2023-01-16 05:52:27,15.08863896,0.000184,53.2177,49.8119,39.3156,320.797,0.00022613,3.315e-05,0.0,0 STARLINK-4750,1 53841U 22114Z   23016.24476653  .00003315  00000-0  22613-3 0  9999,2 53841  53.2177  49.8119 0001840  39.3156 320.7970 15.08863896 19057,6917.807,95.436,540.945,538.399,0.0
53841.0,STARLINK-4750,PAYLOAD,2023-01-16 12:13:59,15.08870118,0.0001791,53.2177,48.6209,54.8565,305.2595,0.00015787,2.227e-05,0.0,0 STARLINK-4750,1 53841U 22114Z   23016.50971845  .00002227  00000-0  15787-3 0  9996,2 53841  53.2177  48.6209 0001791  54.8565 305.2595 15.08870118 19635,6917.7880000000005,95.436,540.8919999999999,538.414,0.0
53841.0,STARLINK-4750,PAYLOAD,2023-01-16 18:35:30,15.0888032,0.0001715,53.2168,47.433,50.0506,310.0636,0.0002525,3.737e-05,0.0,0 STARLINK-4750,1 53841U 22114Z   23016.77466365  .00003737  00000-0  25250-3 0  9994,2 53841  53.2168  47.4330 0001715  50.0506 310.0636 15.08880320 19137,6917.757,95.435,540.809,538.436,0.0
53841.0,STARLINK-4750,PAYLOAD,2023-01-17 02:32:26,15.08872465,0.0001395999999999,53.217,45.9467,75.96,284.1547,0.00021858,3.195e-05,0.0,0 STARLINK-4750,1 53841U 22114Z   23017.10586181  .00003195  00000-0  21858-3 0  9999,2 53841  53.2170  45.9467 0001396  75.9600 284.1547 15.08872465 19188,6917.781,95.436,540.612,538.68,0.0
53841.0,STARLINK-4750,PAYLOAD,2023-01-17 12:04:50,15.08812738,0.0001644,53.2157,44.1598,71.9655,288.1516,-0.00028463,-4.812e-05,0.0,0 STARLINK-4750,1 53841U 22114Z   23017.50335791 -.00004812  00000-0 -28463-3 0  9990,2 53841  53.2157  44.1598 0001644  71.9655 288.1516 15.08812738 19245,6917.964,95.439,540.966,538.691,0.0
53841.0,STARLINK-4750,PAYLOAD,2023-01-17 18:26:22,15.0881983,0.0001273,53.2163,42.9701,59.177,300.9347,-0.00046598,-7.692e-05,0.0,0 STARLINK-4750,1 53841U 22114Z   23017.76832133 -.00007692  00000-0 -46598-3 0  9998,2 53841  53.2163  42.9701 0001273  59.1770 300.9347 15.08819830 19827,6917.941999999999,95.439,540.688,538.9259999999999,0.0
53841.0,STARLINK-4750,PAYLOAD,2023-01-18 10:20:14,15.08821157,0.0001641999999999,53.2188,39.9978,88.4146,271.7035,-0.00038988,-6.484e-05,0.0,0 STARLINK-4750,1 53841U 22114Z   23018.43072802 -.00006484  00000-0 -38988-3 0  9994,2 53841  53.2188  39.9978 0001642  88.4146 271.7035 15.08821157 19923,6917.938,95.439,540.939,538.6669999999999,0.0
53841.0,STARLINK-4750,PAYLOAD,2023-01-18 15:06:23,15.08831147,0.0001254,53.2166,39.1069,86.8281,273.2854,-0.00030279,-5.102e-05,0.0,0 STARLINK-4750,1 53841U 22114Z   23018.62943934 -.00005102  00000-0 -30279-3 0  9999,2 53841  53.2166  39.1069 0001254  86.8281 273.2854 15.08831147 19413,6917.906999999999,95.438,540.64,538.905,0.0
53841.0,STARLINK-4750,PAYLOAD,2023-01-18 18:17:09,15.08833599,0.0001295,53.2165,38.5125,83.8025,276.3115,-0.00028402,-4.804e-05,0.0,0 STARLINK-4750,1 53841U 22114Z   23018.76191837 -.00004804  00000-0 -28402-3 0  9994,2 53841  53.2165  38.5125 0001295  83.8025 276.3115 15.08833599 19974,6917.9,95.438,540.661,538.869,0.0
53841.0,STARLINK-4750,PAYLOAD,2023-01-19 10:11:00,15.08815978,0.0002032999999999,53.2169,35.5374,85.0554,275.0671,0.00035282,5.328e-05,0.0,0 STARLINK-4750,1 53841U 22114Z   23019.42431202  .00005328  00000-0  35282-3 0  9995,2 53841  53.2169  35.5374 0002033  85.0554 275.0671 15.08815978 19539,6917.954000000001,95.439,541.225,538.4119999999999,0.0
53841.0,STARLINK-4750,PAYLOAD,2023-01-19 11:46:23,15.08818456,0.0001746,53.2163,35.2403,85.4941,274.625,0.00036796,5.569e-05,0.0,0 STARLINK-4750,1 53841U 22114Z   23019.49055033  .00005569  00000-0  36796-3 0  9994,2 53841  53.2163  35.2403 0001746  85.4941 274.6250 15.08818456 20081,6917.946,95.439,541.019,538.6030000000001,0.0
53841.0,STARLINK-4750,PAYLOAD,2023-01-19 18:07:57,15.0879991,0.0002019,53.2175,34.0478,81.4522,278.6699,0.0004068999999999,6.187e-05,0.0,0 STARLINK-4750,1 53841U 22114Z   23019.75552672  .00006187  00000-0  40690-3 0  9999,2 53841  53.2175  34.0478 0002019  81.4522 278.6699 15.08799910 19585,6918.003000000001,95.44,541.265,538.471,0.0
